OBJECT_NAME,OBJECT_ID,EPOCH,MEAN_MOTION,ECCENTRICITY,INCLINATION,RA_OF_ASC_NODE,ARG_OF_PERICENTER,MEAN_ANOMALY,EPHEMERIS_TYPE,CLASSIFICATION_TYPE,NORAD_CAT_ID,ELEMENT_SET_NO,REV_AT_EPOCH,BSTAR,MEAN_MOTION_DOT,MEAN_MOTION_DDOT
STARLINK-37949,2026-143Y,2026-07-03T10:00:08.000064,15.80777942,.00012,97.2836,228.1523,106.7921,285.2268,0,U,69671,999,297,.34117137E-3,.65587E-3,0
STARLINK-37946,2026-143Z,2026-07-03T10:00:08.000064,15.80775954,.00011233,97.2835,228.1438,111.3899,257.9884,0,U,69672,999,297,.43990725E-3,.84788E-3,0
TJS-26A,2026-144A,2026-06-23T07:54:55.514880,2.27958502,.73145613,19.5157,324.7456,179.7910,181.1077,0,U,69674,999,2,.31526459E-3,.963E-4,-.166614E-6
STARLINK-38005,2026-145A,2026-07-03T10:00:08.000064,15.75245275,.00011582,97.2848,30.6724,103.9819,214.5154,0,U,69677,999,253,-.9662713E-3,-.142221E-2,0
STARLINK-38009,2026-145B,2026-07-03T10:00:08.000064,15.76648796,.00015835,97.2848,30.6771,84.5354,242.9931,0,U,69678,999,253,-.12165372E-1,-.171112E-1,0
STARLINK-37998,2026-145C,2026-07-03T10:00:08.000064,15.78788687,.00015911,97.2845,30.6812,81.5188,255.4246,0,U,69679,999,253,-.12327283E-1,-.1883414E-1,0
STARLINK-37994,2026-145D,2026-07-03T10:00:08.000064,15.77103210,.00016064,97.2847,30.6807,75.9103,257.1789,0,U,69680,999,253,-.14282242E-1,-.2003354E-1,0
STARLINK-37992,2026-145E,2026-07-03T10:00:08.000064,15.77195189,.00015885,97.2847,30.6808,79.9673,255.0455,0,U,69681,999,253,-.14922386E-1,-.2133696E-1,0
STARLINK-37997,2026-145F,2026-07-03T10:00:08.000064,15.77601970,.00015564,97.2845,30.6810,90.0547,248.0895,0,U,69682,999,253,-.14220198E-1,-.2034471E-1,0
STARLINK-37990,2026-145G,2026-07-03T10:00:08.000064,15.75152104,.00017809,97.2845,30.6825,72.1510,266.3865,0,U,69683,999,253,-.8565518E-3,-.125829E-2,0
STARLINK-37951,2026-145H,2026-07-03T10:00:08.000064,15.76386715,.00017159,97.2846,30.6837,86.0971,257.6642,0,U,69684,999,253,-.10699418E-1,-.1483732E-1,0
STARLINK-37957,2026-145J,2026-07-03T10:00:08.000064,15.77161111,.00014121,97.2844,30.6861,81.6155,267.1827,0,U,69685,999,253,-.12604165E-1,-.1801068E-1,0
STARLINK-37968,2026-145K,2026-07-03T10:00:08.000064,15.78724900,.00015343,97.2843,30.6995,66.5413,312.5930,0,U,69686,999,253,-.12381581E-1,-.1885827E-1,0
STARLINK-37977,2026-145L,2026-07-03T10:00:08.000064,15.78236925,.00016581,97.2844,30.7019,70.7482,313.7632,0,U,69687,999,253,-.12647621E-1,-.1884609E-1,0
STARLINK-37908,2026-145M,2026-07-03T10:00:08.000064,15.79370807,.0001701,97.2846,30.7061,82.9120,310.1323,0,U,69688,999,253,-.1215578E-1,-.1904097E-1,0
STARLINK-37979,2026-145N,2026-07-03T10:00:08.000064,15.78997733,.00017004,97.2844,30.7069,82.1070,314.1848,0,U,69689,999,253,-.12285624E-1,-.1893569E-1,0
STARLINK-37940,2026-145P,2026-07-03T10:00:08.000064,15.78426094,.00014641,97.2844,30.7103,80.6900,323.3185,0,U,69690,999,253,-.12580548E-1,-.1889729E-1,0
STARLINK-37961,2026-145Q,2026-07-03T10:00:08.000064,15.80379857,.00016635,97.2847,30.7143,71.5811,343.4075,0,U,69691,999,253,-.11574741E-1,-.1899582E-1,0
STARLINK-37787,2026-145R,2026-07-03T10:00:08.000064,15.81066237,.000137,97.2845,30.7184,72.8655,351.2395,0,U,69692,999,253,-.11593483E-1,-.1955165E-1,0
STARLINK-37962,2026-145S,2026-07-03T10:00:08.000064,15.80978175,.00013918,97.2843,30.7182,89.1905,334.3732,0,U,69693,999,253,-.14694445E-2,-.274978E-2,0
STARLINK-37953,2026-145T,2026-07-03T10:00:08.000064,15.79586721,.00017673,97.2845,30.7185,80.0046,344.2486,0,U,69694,999,253,-.12052948E-1,-.1906431E-1,0
STARLINK-37926,2026-145U,2026-07-03T10:00:08.000064,15.79744216,.00015641,97.2845,30.7203,73.6951,353.9557,0,U,69695,999,253,-.11968525E-1,-.1906527E-1,0
STARLINK-37959,2026-145V,2026-07-03T10:00:08.000064,15.80780687,.00012493,97.2846,30.7202,69.7711,359.3769,0,U,69696,999,253,-.11379771E-1,-.1901699E-1,0
STARLINK-37976,2026-145W,2026-07-03T10:00:08.000064,15.81196647,.00021948,97.2846,30.7256,81.8579,0.3768,0,U,69697,999,253,-.96281964E-2,-.163804E-1,0
STARLINK-37912,2026-145X,2026-07-03T10:00:08.000064,15.81085853,.00018144,97.2846,30.7292,97.2433,352.1692,0,U,69698,999,253,-.10740809E-1,-.1831014E-1,0
STARLINK-37974,2026-145Y,2026-07-03T10:00:08.000064,15.81170679,.00017639,97.2848,30.7304,88.1837,4.4637,0,U,69699,999,253,-.10079746E-1,-.170218E-1,0
STARLINK-37955,2026-145Z,2026-07-03T10:00:08.000064,15.80934549,.00020102,97.2848,30.7375,74.0022,34.3230,0,U,69700,999,253,-.1116782E-1,-.188318E-1,0
STRIX-8,2026-146A,2026-07-02T04:56:49.236288,15.04334124,.0009113,41.9894,85.0428,301.8750,58.1190,0,U,69701,999,82,.43099E-3,.5929E-4,0
