STARLINK-37949          
1 69671U 26143Y   26184.41675926  .00065587  00000+0  34117-3 0  9995
2 69671  97.2836 228.1523 0001200 106.7921 285.2268 15.80777942  2979
STARLINK-37946          
1 69672U 26143Z   26184.41675926  .00084788  00000+0  43991-3 0  9990
2 69672  97.2835 228.1438 0001123 111.3899 257.9884 15.80775954  2975
TJS-26A                 
1 69674U 26144A   26174.32980920  .00009630 -16661-6  31526-3 0  9997
2 69674  19.5157 324.7456 7314561 179.7910 181.1077  2.27958502    21
STARLINK-38005          
1 69677U 26145A   26184.41675926 -.00142221  00000+0 -96627-3 0  9990
2 69677  97.2848  30.6724 0001158 103.9819 214.5154 15.75245275  2538
STARLINK-38009          
1 69678U 26145B   26184.41675926 -.01711120  00000+0 -12165-1 0  9995
2 69678  97.2848  30.6771 0001583  84.5354 242.9931 15.76648796  2535
STARLINK-37998          
1 69679U 26145C   26184.41675926 -.01883414  00000+0 -12327-1 0  9992
2 69679  97.2845  30.6812 0001591  81.5188 255.4246 15.78788687  2534
STARLINK-37994          
1 69680U 26145D   26184.41675926 -.02003354  00000+0 -14282-1 0  9994
2 69680  97.2847  30.6807 0001606  75.9103 257.1789 15.77103210  2536
STARLINK-37992          
1 69681U 26145E   26184.41675926 -.02133696  00000+0 -14922-1 0  9999
2 69681  97.2847  30.6808 0001588  79.9673 255.0455 15.77195189  2536
STARLINK-37997          
1 69682U 26145F   26184.41675926 -.02034471  00000+0 -14220-1 0  9992
2 69682  97.2845  30.6810 0001556  90.0547 248.0895 15.77601970  2537
STARLINK-37990          
1 69683U 26145G   26184.41675926 -.00125829  00000+0 -85655-3 0  9991
2 69683  97.2845  30.6825 0001780  72.1510 266.3865 15.75152104  2532
STARLINK-37951          
1 69684U 26145H   26184.41675926 -.01483732  00000+0 -10699-1 0  9997
2 69684  97.2846  30.6837 0001715  86.0971 257.6642 15.76386715  2534
STARLINK-37957          
1 69685U 26145J   26184.41675926 -.01801068  00000+0 -12604-1 0  9992
2 69685  97.2844  30.6861 0001412  81.6155 267.1827 15.77161111  2532
STARLINK-37968          
1 69686U 26145K   26184.41675926 -.01885827  00000+0 -12382-1 0  9991
2 69686  97.2843  30.6995 0001534  66.5413 312.5930 15.78724900  2536
STARLINK-37977          
1 69687U 26145L   26184.41675926 -.01884609  00000+0 -12648-1 0  9994
2 69687  97.2844  30.7019 0001658  70.7482 313.7632 15.78236925  2533
STARLINK-37908          
1 69688U 26145M   26184.41675926 -.01904097  00000+0 -12156-1 0  9993
2 69688  97.2846  30.7061 0001701  82.9120 310.1323 15.79370807  2533
STARLINK-37979          
1 69689U 26145N   26184.41675926 -.01893569  00000+0 -12286-1 0  9999
2 69689  97.2844  30.7069 0001700  82.1070 314.1848 15.78997733  2533
STARLINK-37940          
1 69690U 26145P   26184.41675926 -.01889729  00000+0 -12581-1 0  9992
2 69690  97.2844  30.7103 0001464  80.6900 323.3185 15.78426094  2539
STARLINK-37961          
1 69691U 26145Q   26184.41675926 -.01899582  00000+0 -11575-1 0  9993
2 69691  97.2847  30.7143 0001663  71.5811 343.4075 15.80379857  2536
STARLINK-37787          
1 69692U 26145R   26184.41675926 -.01955165  00000+0 -11593-1 0  9994
2 69692  97.2845  30.7184 0001370  72.8655 351.2395 15.81066237  2533
STARLINK-37962          
1 69693U 26145S   26184.41675926 -.00274978  00000+0 -14694-2 0  9996
2 69693  97.2843  30.7182 0001391  89.1905 334.3732 15.80978175  2531
STARLINK-37953          
1 69694U 26145T   26184.41675926 -.01906431  00000+0 -12053-1 0  9990
2 69694  97.2845  30.7185 0001767  80.0046 344.2486 15.79586721  2536
STARLINK-37926          
1 69695U 26145U   26184.41675926 -.01906527  00000+0 -11969-1 0  9992
2 69695  97.2845  30.7203 0001564  73.6951 353.9557 15.79744216  2537
STARLINK-37959          
1 69696U 26145V   26184.41675926 -.01901699  00000+0 -11380-1 0  9995
2 69696  97.2846  30.7202 0001249  69.7711 359.3769 15.80780687  2537
STARLINK-37976          
1 69697U 26145W   26184.41675926 -.01638040  00000+0 -96282-2 0  9998
2 69697  97.2846  30.7256 0002194  81.8579   0.3768 15.81196647  2534
STARLINK-37912          
1 69698U 26145X   26184.41675926 -.01831014  00000+0 -10741-1 0  9990
2 69698  97.2846  30.7292 0001814  97.2433 352.1692 15.81085853  2533
STARLINK-37974          
1 69699U 26145Y   26184.41675926 -.01702180  00000+0 -10080-1 0  9998
2 69699  97.2848  30.7304 0001763  88.1837   4.4637 15.81170679  2537
STARLINK-37955          
1 69700U 26145Z   26184.41675926 -.01883180  00000+0 -11168-1 0  9999
2 69700  97.2848  30.7375 0002010  74.0022  34.3230 15.80934549  2538
STRIX-8                 
1 69701U 26146A   26183.20612542  .00005929  00000+0  43099-3 0  9996
2 69701  41.9894  85.0428 0009113 301.8750  58.1190 15.04334124   826
